[{"OBJECT_NAME":"STARLINK-5432","OBJECT_ID":"2022-177AE","EPOCH":"2026-03-09T22:00:01.999584","MEAN_MOTION":15.11732935,"ECCENTRICITY":0.00010752,"INCLINATION":43.0007,"RA_OF_ASC_NODE":119.0987,"ARG_OF_PERICENTER":287.7393,"MEAN_ANOMALY":278.5233,"EPHEMERIS_TYPE":0,"CLASSIFICATION_TYPE":"U","NORAD_CAT_ID":54848,"ELEMENT_SET_NO":999,"REV_AT_EPOCH":577,"BSTAR":0.0014997127,"MEAN_MOTION_DOT":0.00025882,"MEAN_MOTION_DDOT":0},{"OBJECT_NAME":"CZ-6A DEB","OBJECT_ID":"2022-151BX","EPOCH":"2026-03-09T18:04:18.424992","MEAN_MOTION":15.16566225,"ECCENTRICITY":0.00404449,"INCLINATION":98.6231,"RA_OF_ASC_NODE":169.9483,"ARG_OF_PERICENTER":104.1368,"MEAN_ANOMALY":256.4361,"EPHEMERIS_TYPE":0,"CLASSIFICATION_TYPE":"U","NORAD_CAT_ID":54328,"ELEMENT_SET_NO":999,"REV_AT_EPOCH":10563,"BSTAR":0.0050960293,"MEAN_MOTION_DOT":0.00102794,"MEAN_MOTION_DDOT":0}]
